STARLINK-1338
1 45532U 20025B   26061.17729982  .00090166  00000+0  14052-2 0  9993
2 45532  53.0500 120.9909 0004727 324.5560  35.5135 15.53127207324238
STARLINK-1433
1 45711U 20035BG  26061.15617736  .00097523  00000+0  15174-2 0  9994
2 45711  53.0510  57.4216 0006895  67.3292 292.8446 15.53122459318190
